#dP2022  4 22  6  0  0.00000000      96 __u+U ITR00 EXT  IAC
## 2206 453600.00000000   900.00000000 59691 0.2500000000000
+  116   C06C07C08C09C10C11C12C13C14C16C19C20C21C22C23C24C25
+        C26C27C28C29C30C32C33C34C35C36C37C38C39C40C41C42C43
+        C44C45C46E01E02E03E04E05E07E08E09E10E11E12E13E14E15
+        E18E19E21E24E25E26E27E30E31E33E34E36G01G02G03G04G05
+        G06G07G08G09G10G11G12G13G14G15G16G18G19G20G21G22G23
+        G24G25G26G27G28G29G30G31G32J02J03R01R02R03R04R05R07
+        R08R09R11R12R13R14R15R17R18R19R20R21R22R24  0  0  0
++        10 10  9 10  8  8  9 10  9  9  9  9 10  9  8  9  8
++         9  9  9  9 10  9  9  9  9  8  7 10 10 10  7  9  8
++         9  9  9  8  8  8  8  8  8  8  8  8  8  8  7  8  8
++         8  9  8  8  8  8  8  8  8  7  8  8  8  9  8  8  8
++         8  8  8  8  8  9  8  9  7  8  7  9  7  8  8  8  8
++         8  8  8  8  8  8  7  7  8 10  9 10  9  9  9  8  7
++         8  9  8  9  9  8  8  9  8  9 11  8  9  9  0  0  0
%c M  cc GPS ccc cccc cccc cccc cccc ccccc ccccc ccccc ccccc
%c cc cc ccc ccc cccc cccc cccc cccc ccccc ccccc ccccc ccccc
%f  0.0000000  0.000000000  0.00000000000  0.000000000000000
%f  0.0000000  0.000000000  0.00000000000  0.000000000000000
%i    0    0    0    0      0      0      0      0         0
%i    0    0    0    0      0      0      0      0         0
/* IAC                                ULTRA-RAPID PREDICTION
/* S/V CLOCKS ARE ALIGNED TO GNSS TIME                      
/* G:C1WC2W R:C1PC2P E:C1XC5X C:C2IC6I J:C1CC2S             
/* PCV:IGS14_2196 OL/AL:FES2004  NONE     YN ORB:CoN CLK:CoN
*  2022 04 22 21 15  0.00000000
PC06 -10519.337581  23128.297315  33641.682300   -155.037712
PC07 -16162.483344  38419.870847  -6889.629618    -73.783104
PC08   -293.712976  33729.248991 -25200.448198    273.863450
PC09   1123.521458  25024.815802  34310.951825   -720.860654
PC10  -9902.278979  38897.833531 -13423.215056    135.297633
PC11 -21980.878313 -11011.261266  13286.637725    308.053856
PC12  -4061.134446 -15497.690708  22880.041176   -625.497472
PC13   6299.611118  37608.710593 -17548.281915    -53.195037
PC14 -11694.399113 -10901.617296 -22841.233507    461.514878
PC16 -13202.947879  22045.265860  33555.026765    122.781492
PC19  17376.286233   1066.728089  21837.366225    876.023628
PC20   5410.653136  17696.156247  20919.583825   -887.307403
PC21  10635.924840 -24717.907717  -7318.853022   -160.112797
PC22  19799.931938 -16839.629175  10122.834001   -970.250934
PC23 -14344.825781   7723.859573  22658.011365   -931.594397
PC24 -12022.733041 -25197.747242    -77.610740   -956.029092
PC25 -19246.243316 -11183.433622  16834.744642   -747.164293
PC26    147.200258 -23500.028272 -15087.352335    748.023342
PC27  -6470.134990  15106.756311 -22574.139041    711.960678
PC28 -23523.727876   7125.603983 -13215.044338     58.366973
PC29  27214.012616   4370.813309  -4398.978896    544.922292
PC30  14336.454463  14137.935808 -19342.774120    497.358665
PC32 -10446.377688  24832.051473   7330.463046   -962.821798
PC33 -17377.920491  -1003.321500 -21803.916155   -966.838535
PC34 -15272.580888 -13871.700602  18763.298870   -419.674037
PC35  23889.085743  -7422.683002  12396.065002    240.953273
PC36  18950.093649  12122.454830 -16489.715077   -963.915362
PC37  -1625.531542  22865.906947  15912.288277   -920.193439
PC38  -6770.555031  29801.987586 -28954.686728    227.017476
PC39 -19552.977756  20752.100531  31032.712858     34.942435
PC40 -22948.991414  35150.448973  -4824.375534    263.048437
PC41 -19817.649483  16615.164594 -10432.850191   -966.600524
PC42  -4620.948699 -18406.428368 -20402.101179   -955.425764
PC43 -26992.958202  -4910.197789   5011.807960   -928.395244
PC44   6237.283428 -15397.429196  22412.647639    636.342356
PC45  14075.459540  -7987.885369 -22734.345636    738.236257
PC46  12909.368166  24679.830563  -1377.950306   -286.081788
PE01 -16420.384404   7832.170492  23345.107727   -621.490706
PE02  16402.565875  -8044.492783 -23298.924291    294.532356
PE03  27433.476821 -10202.209447   4377.120932   -550.782169
PE04 -17744.910337  19477.178258  13501.793871  -1012.305062
PE05  21169.495833   5251.583372  20019.365321   -188.370360
PE07  -2692.824061 -17408.373073 -23774.992430   -661.262732
PE08  17454.495406 -19516.867042 -13787.518574   -516.841014
PE09   2846.185940  17225.137453  23914.183150   -493.409814
PE10   2731.641473  19073.307241 -22480.614544   -508.385986
PE11  13049.426254  21113.181138 -16156.416249   3882.663182
PE12  -7592.642411  14281.616955 -24794.697190   4649.674922
PE13 -12475.727078 -21003.623903  16706.064591    428.199448
PE14 -21475.874566  18834.109481 -14685.320475  -1823.437534
PE15   7702.586259 -14119.171156  24851.642057    750.065249
PE18  19246.482861 -11923.167257   7839.344896  -1533.544243
PE19 -27564.616860   8468.734077  -6664.768537  -3458.095297
PE21 -14295.506873 -13329.687835  22225.992112   -730.000248
PE24   2978.095531  28550.275276  -7188.076884   -575.480360
PE25  14205.844290  13597.997843 -22119.752143   -571.352305
PE26 -25415.828568 -15013.791025  -2152.254275  -1061.016337
PE27  -3851.962416 -28159.693124   8288.542709   -282.288716
PE30   9469.978418 -25691.415181 -11278.157552   -452.171048
PE31  -8770.729052  26282.713709  10411.014504   -495.486049
PE33 -23227.094412  -1045.740583 -18308.634440   -457.361011
PE34  23139.483390    848.986222  18431.763107   -513.412878
PE36  25192.712221  15510.564418   1193.877762   -363.430075
PG01  22002.184346  13594.552531   6521.166625    379.012338
PG02 -11084.257798 -20039.453330  13980.285516   -653.216696
PG03  13483.168800   7558.992064  21507.195682   -217.155927
PG04  22639.710675   2874.629915  13668.134792   -173.699952
PG05  -6749.973523 -21607.113096 -13933.308243    -79.257066
PG06   3943.344758 -15279.577067  21413.653019    276.372064
PG07  19360.741673   -232.078634 -17997.736025    320.883470
PG08  15596.724369   8792.021434 -19769.669044    -65.043258
PG09  25445.738298  -6442.826319   4094.789447   -341.949917
PG10 -11499.943136  20979.003156 -11068.014276   -388.375422
PG11  -9821.646573 -21332.978998  12414.384437    -35.547447
PG12 -11253.864332 -12342.284133  20411.026570   -204.411401
PG13  -6290.272514 -14019.371863 -21829.107001    298.822587
PG14  13087.662892 -19820.031201 -11806.061206   -104.289429
PG15 -17215.000840  -7463.878687 -19320.885577    -66.886622
PG16   1012.423962  24077.726430 -10898.274767   -494.250297
PG18 -19092.276475    -64.538343 -18515.509811    188.842914
PG19  13315.212101 -14975.795521  17066.847356    147.854810
PG20  -2136.782598 -26308.820281  -3926.262894    515.700902
PG21  20257.935859  17343.070099  -3052.024187    160.647402
PG22  -9770.066111  16243.569335  18943.770542    247.565685
PG23 -14896.885762  11284.008928 -18843.323818    -16.896941
PG24 -22334.486595 -14642.764556   1760.450943    252.792410
PG25 -15567.703435   3181.061560  20953.082886    315.426852
PG26  -4343.413153  25993.703901   1309.948611    200.543560
PG27   2998.175315  14848.529655 -22003.310628    189.086031
PG28   9147.348221 -24830.108902  -2923.930154    368.506944
PG29 -25877.223529   3602.392675   4912.349837   -505.955105
PG30  13133.410790  -9150.400055 -21141.563638   -524.942938
PG31  -2275.026400  16988.022550  20037.112938   -174.562813
PG32 -16424.921156  15975.330139  13411.431884   -111.113467
PJ02 -27526.788332  26716.651446  22344.394985     -2.930784
PJ03 -30517.284364  16132.988848 -19587.277135     -1.696547
PR01 -15128.743872  19818.958419   5433.420063      8.026448
PR02   -882.647257  14733.150781  20835.838249    516.316635
PR03  13133.800131   1492.901878  21876.790578     55.386768
PR04  19523.196921 -12373.470168  10831.691753    138.007633
PR05  15357.737219 -19403.289725  -6218.523625     91.620700
PR07 -13520.759215   -894.984624 -21556.672055     34.177861
PR08 -19497.128227  12543.329912 -10550.170384    -64.745632
PR09  -7813.485388 -24208.578008   1265.604410     51.193609
PR11 -10453.506591   3126.501111  23064.706643     40.564487
PR12  -2070.912123  20127.852384  15542.562175     18.057905
PR13   7150.035255  24485.336457     -5.646349    -21.271961
PR14  12593.324295  14270.846426 -16983.054722     76.807830
PR15  10342.772739  -3908.504956 -22970.800115     96.644180
PR17  23399.496945   8694.889603  -5164.339749    519.826936
PR18  22769.877500    919.590774  11531.654556    114.444535
PR19  11422.204352  -6632.188162  21818.610820   -186.365263
PR20  -9876.018363 -12307.133918  20028.145063    -69.148555
PR21 -23868.036569  -8241.707319   3681.577176   -295.446055
PR22 -22265.897729   -572.998766 -12352.983719   -178.594455
PR24  10792.259937  12470.548772 -19444.469066     90.314762
EOF
